RAVAN                   
1 41849U 16067B   26068.64345240  .00037768  00000+0  76908-3 0  9999
2 41849  98.0039 307.3532 0006137   6.7222 353.4107 15.46151325512279
STARLINK-1464           
1 45751U 20038X   26068.63203598  .00086712  00000+0  18543-2 0  9999
2 45751  53.0521 204.9004 0002165 268.0966  91.9792 15.44102768316645
