[{"OBJECT_NAME":"RAVAN","OBJECT_ID":"2016-067B","EPOCH":"2026-03-09T15:26:34.287360","MEAN_MOTION":15.46151325,"ECCENTRICITY":0.0006137,"INCLINATION":98.0039,"RA_OF_ASC_NODE":307.3532,"ARG_OF_PERICENTER":6.7222,"MEAN_ANOMALY":353.4107,"EPHEMERIS_TYPE":0,"CLASSIFICATION_TYPE":"U","NORAD_CAT_ID":41849,"ELEMENT_SET_NO":999,"REV_AT_EPOCH":51227,"BSTAR":0.00076908,"MEAN_MOTION_DOT":0.00037768,"MEAN_MOTION_DDOT":0},{"OBJECT_NAME":"STARLINK-1464","OBJECT_ID":"2020-038X","EPOCH":"2026-03-09T15:10:07.908672","MEAN_MOTION":15.44102768,"ECCENTRICITY":0.0002165,"INCLINATION":53.0521,"RA_OF_ASC_NODE":204.9004,"ARG_OF_PERICENTER":268.0966,"MEAN_ANOMALY":91.9792,"EPHEMERIS_TYPE":0,"CLASSIFICATION_TYPE":"U","NORAD_CAT_ID":45751,"ELEMENT_SET_NO":999,"REV_AT_EPOCH":31664,"BSTAR":0.0018543,"MEAN_MOTION_DOT":0.00086712,"MEAN_MOTION_DDOT":0}]
